{"generatedAt":"2026-04-27T08:34:56.112989Z","satellites":[{"name":"KUIPER-00148","tle1":"1 65769C 25217H   26117.25285880 -.00002416  00000+0 -34463-3 0  1174","tle2":"2 65769  51.9032 166.2461 0002084 168.0420 334.1310 14.76293734    18"},{"name":"KUIPER-00150","tle1":"1 65770C 25217J   26117.28586806  .00001527  00000+0  19995-3 0  1174","tle2":"2 65770  51.9003 195.7201 0000497  90.1234  32.4559 14.79910383    13"},{"name":"KUIPER-00151","tle1":"1 65771C 25217K   26117.29623843  .00000172  00000+0  22516-4 0  1178","tle2":"2 65771  51.9004 188.1712 0000327  76.7830  57.9102 14.79916995    13"},{"name":"KUIPER-00152","tle1":"1 65772C 25217L   26117.30775463 -.00001912  00000+0 -25031-3 0  1176","tle2":"2 65772  51.8994 175.6100 0000248  59.0177 245.1297 14.79935796    19"},{"name":"KUIPER-00153","tle1":"1 65773C 25217M   26117.24497685 -.00003679  00000+0 -52279-3 0  1173","tle2":"2 65773  51.9012 170.5900 0000259 220.6213 265.8587 14.76462153    13"},{"name":"KUIPER-00155","tle1":"1 65774C 25217N   26117.14612269 -.00740580  00000+0 -72574-1 0  1177","tle2":"2 65774  51.8956 144.2448 0006047  87.5058  29.3441 14.92499925    10"},{"name":"KUIPER-00156","tle1":"1 65775C 25217P   26117.27998843 -.00001250  00000+0 -16368-3 0  1172","tle2":"2 65775  51.9015 170.7738 0000565  83.2486 224.1839 14.79914253    18"},{"name":"KUIPER-00163","tle1":"1 65777C 25217R   26117.31119213  .00051716  00000+0  32572-3 0  1170","tle2":"2 65777  51.8980 168.3591 0003364  16.3638 199.9234 15.75899080    11"},{"name":"KUIPER-00165","tle1":"1 65778C 25217S   26117.12326389  .00004034  00000+0  52830-3 0  1174","tle2":"2 65778  51.8995 181.4281 0000385  80.3841 169.0698 14.79911244    19"},{"name":"KUIPER-00166","tle1":"1 65779C 25217T   26117.21747685  .00000374  00000+0  48983-4 0  1179","tle2":"2 65779  51.9013 168.5452 0000392  75.5183  64.2138 14.79942876    11"},{"name":"KUIPER-00167","tle1":"1 65780C 25217U   26117.29246528  .00001269  00000+0  16584-3 0  1174","tle2":"2 65780  51.8952 190.6237 0000307 127.3588   1.5636 14.80011764    14"},{"name":"KUIPER-00168","tle1":"1 65781C 25217V   26117.17329861  .00002207  00000+0  28882-3 0  1171","tle2":"2 65781  51.8996 173.7103 0000415  89.9181  23.1143 14.79940040    18"},{"name":"KUIPER-00169","tle1":"1 65782C 25217W   26117.31053241  .00000575  00000+0  75185-4 0  1179","tle2":"2 65782  51.9001 178.1090 0000408  82.4291  70.8804 14.79944481    19"},{"name":"KUIPER-00170","tle1":"1 65783C 25217X   26117.23061343 -.00003972  00000+0 -51925-3 0  1174","tle2":"2 65783  51.8981 183.4357 0000226  69.5841  47.1977 14.79992668    14"},{"name":"KUIPER-00172","tle1":"1 65785C 25217Z   26117.21006944 -.00002298  00000+0 -32488-3 0  1173","tle2":"2 65785  51.8970 165.3146 0001741 113.8077 357.3166 14.76670797    15"},{"name":"KUIPER-00173","tle1":"1 65786C 25217AA  26117.20324074  .00000679  00000+0  88941-4 0  1175","tle2":"2 65786  51.8997 178.5877 0000237   2.7907 116.3164 14.79905920    12"},{"name":"KUIPER-00174","tle1":"1 65787C 25217AB  26117.13693287  .00001771  00000+0  23190-3 0  1171","tle2":"2 65787  51.9018 173.9087 0000521  73.9896  25.1306 14.79918568    10"},{"name":"KUIPER-00176","tle1":"1 65788C 25217AC  26117.14821759 -.00031468  00000+0 -41187-2 0  1173","tle2":"2 65788  51.8988 188.8161 0000402  91.1803 154.3759 14.79968688    17"},{"name":"KUIPER-00101","tle1":"1 65947C 25228A   26117.15075232  .00053342  00000+0  69797-2 0  1170","tle2":"2 65947  51.8965 146.2753 0000364  55.4042 139.4065 14.79895357    15"},{"name":"KUIPER-00113","tle1":"1 65948C 25228B   26117.16331019 -.00004954  00000+0 -64883-3 0  1179","tle2":"2 65948  51.8967 141.2387 0000295  59.1778 353.1575 14.79911934    17"},{"name":"KUIPER-00117","tle1":"1 65949C 25228C   26117.14075232 -.00000948  00000+0 -12410-3 0  1178","tle2":"2 65949  51.8964 143.8392 0000460  57.8970  68.9877 14.79940326    15"},{"name":"KUIPER-00121","tle1":"1 65950C 25228D   26117.28519676 -.00000234  00000+0 -30677-4 0  1174","tle2":"2 65950  51.8978 138.2020 0000639  47.5418 281.0286 14.79912972    17"},{"name":"KUIPER-00122","tle1":"1 65951C 25228E   26117.16921296 -.00000258  00000+0 -33823-4 0  1179","tle2":"2 65951  51.8976 148.6922 0000395  63.9063  63.5342 14.79938559    14"},{"name":"KUIPER-00123","tle1":"1 65952C 25228F   26117.14732639 -.00002486  00000+0 -32523-3 0  1179","tle2":"2 65952  51.8969 148.8061 0000438  72.5686 118.2854 14.79953277    18"},{"name":"KUIPER-00124","tle1":"1 65953C 25228G   26117.14353009 -.00000468  00000+0 -61264-4 0  1173","tle2":"2 65953  51.8967 141.3109 0000630  83.9208  43.6237 14.79919076    13"},{"name":"KUIPER-00125","tle1":"1 65954C 25228H   26117.09245370 -.00001171  00000+0 -15327-3 0  1179","tle2":"2 65954  51.8982 126.5688 0000553  59.6222  69.0876 14.79929120    10"},{"name":"KUIPER-00126","tle1":"1 65955C 25228J   26117.20428241 -.00001739  00000+0 -22745-3 0  1175","tle2":"2 65955  51.8974 146.0679 0000432  59.3430 240.7713 14.79957424    19"},{"name":"KUIPER-00127","tle1":"1 65956C 25228K   26117.12820602 -.00004599  00000+0 -58599-3 0  1177","tle2":"2 65956  51.8985 138.8933 0001115 153.1883 132.9795 14.81069480    19"},{"name":"KUIPER-00128","tle1":"1 65957C 25228L   26117.14456019 -.00000701  00000+0 -91819-4 0  1171","tle2":"2 65957  51.8990 138.8557 0000494  63.4063  55.0717 14.79928273    10"},{"name":"KUIPER-00129","tle1":"1 65958C 25228M   26117.17096065 -.00001325  00000+0 -17350-3 0  1176","tle2":"2 65958  51.8986 133.7222 0000452  59.8283 350.7410 14.79917449    14"},{"name":"KUIPER-00130","tle1":"1 65959C 25228N   26117.18171296 -.00035573  00000+0 -46573-2 0  1178","tle2":"2 65959  51.9008 136.1910 0000474  65.7041 236.6174 14.79961458    12"},{"name":"KUIPER-00134","tle1":"1 65960C 25228P   26117.20112269  .00010186  00000+0  25071-3 0  1170","tle2":"2 65960  51.8716  85.0928 0006489 119.1702 184.3609 15.39963546    19"},{"name":"KUIPER-00135","tle1":"1 65961C 25228Q   26117.18427083 -.00001848  00000+0 -24182-3 0  1170","tle2":"2 65961  51.9002 136.2392 0000420  56.6765  79.2025 14.79949426    14"},{"name":"KUIPER-00136","tle1":"1 65962C 25228R   26117.25429398 -.00001247  00000+0 -16377-3 0  1170","tle2":"2 65962  51.8985 133.3969 0000836  50.4332 263.4132 14.79777821    19"},{"name":"KUIPER-00137","tle1":"1 65963C 25228S   26117.10597222 -.00003160  00000+0 -41358-3 0  1170","tle2":"2 65963  51.9012 131.5256 0000503  73.2560 156.2891 14.79936951    10"},{"name":"KUIPER-00138","tle1":"1 65964C 25228T   26117.12332176 -.00001110  00000+0 -14528-3 0  1170","tle2":"2 65964  51.8967 128.9129 0000551  73.2682  54.3788 14.79934302    17"},{"name":"KUIPER-00140","tle1":"1 65965C 25228U   26117.11979167 -.00000551  00000+0 -72072-4 0  1174","tle2":"2 65965  51.8972 131.5134 0000463  66.2215  57.2167 14.79942833    17"},{"name":"KUIPER-00141","tle1":"1 65966C 25228V   26117.12731482 -.00002086  00000+0 -27308-3 0  1178","tle2":"2 65966  51.9008 126.5088 0000555  74.8970  59.6604 14.79935093    18"},{"name":"KUIPER-00146","tle1":"1 65967C 25228W   26117.26255787  .00000327  00000+0  42760-4 0  1177","tle2":"2 65967  51.9008 128.4199 0000574  63.4087 266.4984 14.79932808    17"},{"name":"KUIPER-00149","tle1":"1 65968C 25228X   26117.16084491 -.00003305  00000+0 -43245-3 0  1178","tle2":"2 65968  51.8990 123.7684 0000536  42.9616 256.1985 14.79952564    10"},{"name":"KUIPER-00154","tle1":"1 65969C 25228Y   26117.15180556 -.00002723  00000+0 -35643-3 0  1173","tle2":"2 65969  51.8979 121.3076 0000474  79.7141 336.8108 14.79939153    11"},{"name":"KUIPER-00157","tle1":"1 65970C 25228Z   26117.09381944 -.00000513  00000+0 -67145-4 0  1170","tle2":"2 65970  51.9004 124.1845 0000560  48.9237  72.6112 14.79938228    10"},{"name":"KUIPER-00144","tle1":"1 67133C 25301A   26117.31152778 -.00337710  00000+0 -43481-1 0  1177","tle2":"2 67133  51.8996 199.7232 0001018 100.6727 285.3827 14.80963236    14"},{"name":"KUIPER-00164","tle1":"1 67134C 25301B   26117.27717593 -.00001103  00000+0 -15677-3 0  1177","tle2":"2 67134  51.9025 211.2856 0001909  93.9909  19.1106 14.76447589    12"},{"name":"KUIPER-00175","tle1":"1 67135C 25301C   26117.28472222 -.00004090  00000+0 -39712-3 0  1170","tle2":"2 67135  51.8944 201.6594 0000374  76.5087  26.2690 14.92141871    13"},{"name":"KUIPER-00179","tle1":"1 67136C 25301D   26117.15693287  .00007547  00000+0  98712-3 0  1176","tle2":"2 67136  51.8973 211.2821 0000409 103.0769 138.0031 14.79957416    14"},{"name":"KUIPER-00181","tle1":"1 67137C 25301E   26117.20376157 -.00005315  00000+0 -69709-3 0  1174","tle2":"2 67137  51.9016 223.5789 0001735  22.3042 181.3103 14.79851905    10"},{"name":"KUIPER-00183","tle1":"1 67138C 25301F   26117.29141204 -.00003119  00000+0 -29978-3 0  1171","tle2":"2 67138  51.8945 202.5507 0008790 227.8975   3.3008 14.92517708    13"},{"name":"KUIPER-00184","tle1":"1 67139C 25301G   26117.28750000 -.00003727  00000+0 -53026-3 0  1177","tle2":"2 67139  51.8985 204.8277 0002007  72.2950  28.4362 14.76409921    17"},{"name":"KUIPER-00186","tle1":"1 67140C 25301H   26117.17575232  .00006934  00000+0  90798-3 0  1177","tle2":"2 67140  51.9010 223.7158 0000483  92.1953 141.4175 14.79910085    16"},{"name":"KUIPER-00187","tle1":"1 67141C 25301J   26117.17200232  .00006354  00000+0  83199-3 0  1176","tle2":"2 67141  51.9021 226.2499 0000543  93.0654 134.9042 14.79913882    18"},{"name":"KUIPER-00188","tle1":"1 67142C 25301K   26117.16041667  .00002295  00000+0  19919-3 0  1170","tle2":"2 67142  51.8953 194.0945 0005216 232.3518 213.2000 14.96531081    10"},{"name":"KUIPER-00191","tle1":"1 67143C 25301L   26117.14629630  .00006069  00000+0  79458-3 0  1178","tle2":"2 67143  51.8999 218.8688 0000442  97.3349 130.6056 14.79920672    19"},{"name":"KUIPER-00196","tle1":"1 67144C 25301M   26117.27803241  .00002628  00000+0  67969-4 0  1177","tle2":"2 67144  51.8692 189.6340 0002315 171.7184  69.6738 15.38478380    13"}]}